NORAD_CAT_ID,OBJECT_NAME,OBJECT_TYPE,EPOCH,MEAN_MOTION,ECCENTRICITY,INCLINATION,RA_OF_ASC_NODE,ARG_OF_PERICENTER,MEAN_ANOMALY,BSTAR,MEAN_MOTION_DOT,MEAN_MOTION_DDOT,TLE_LINE0,TLE_LINE1,TLE_LINE2,SEMIMAJOR_AXIS,PERIOD,APOGEE,PERIGEE,DECAYED
53998.0,STARLINK-5128,PAYLOAD,2022-11-29 22:00:00,15.33961593,0.0001602,53.2169,182.8243,136.0677,155.3605,-0.037205,-0.0113169,0.0,0 STARLINK-5128,1 53998U 22125AL  22333.91667824 -.01131690  00000-0 -37205-1 0  9993,2 53998  53.2169 182.8243 0001602 136.0677 155.3605 15.33961593  1303,6842.144,93.875,465.105,462.912,0.0
53998.0,STARLINK-5128,PAYLOAD,2022-11-30 14:00:01,15.32337373,0.000164,53.2174,179.7149,140.6025,232.4902,-0.039295,-0.01134883,0.0,0 STARLINK-5128,1 53998U 22125AL  22334.58335648 -.01134883  00000-0 -39295-1 0  9991,2 53998  53.2174 179.7149 0001640 140.6025 232.4902 15.32337373  9104,6846.978,93.974,469.966,467.72,0.0
53998.0,STARLINK-5128,PAYLOAD,2022-11-30 22:00:00,15.31526765,0.0001514,53.2174,178.1665,134.2716,278.0888,-0.040532,-0.01140516,0.0,0 STARLINK-5128,1 53998U 22125AL  22334.91667824 -.01140516  00000-0 -40532-1 0  9998,2 53998  53.2174 178.1665 0001514 134.2716 278.0888 15.31526765  1303,6849.393,94.024,472.295,470.221,0.0
53998.0,STARLINK-5128,PAYLOAD,2022-12-01 06:00:00,15.3071163,0.0001224,53.2174,176.61700000000005,106.0351,344.6823,-0.041477,-0.01137839,0.0,0 STARLINK-5128,1 53998U 22125AL  22335.25001157 -.01137839  00000-0 -41477-1 0  9990,2 53998  53.2174 176.6170 0001224 106.0351 344.6823 15.30711630  9209,6851.825,94.074,474.529,472.851,0.0
53998.0,STARLINK-5128,PAYLOAD,2022-12-01 14:00:01,15.29897068,0.0001386999999999,53.2176,175.0696,110.7366,17.3593,-0.042463,-0.01135887,0.0,0 STARLINK-5128,1 53998U 22125AL  22335.58334491 -.01135887  00000-0 -42463-1 0  9993,2 53998  53.2176 175.0696 0001387 110.7366  17.3593 15.29897068  1304,6854.257,94.124,477.072,475.171,0.0
53998.0,STARLINK-5128,PAYLOAD,2022-12-01 22:00:00,15.29067325,0.0001551,53.2172,173.5279,118.1896,46.3123,-0.042647,-0.01113897,0.0,0 STARLINK-5128,1 53998U 22125AL  22335.91667824 -.01113897  00000-0 -42647-1 0  9990,2 53998  53.2172 173.5279 0001551 118.1896  46.3123 15.29067325  1309,6856.736,94.175,479.665,477.538,0.0
53998.0,STARLINK-5128,PAYLOAD,2022-12-02 06:00:00,15.28271272,0.0001381,53.2175,171.983,100.8172,99.1003,-0.044786,-0.01138927,0.0,0 STARLINK-5128,1 53998U 22125AL  22336.25001157 -.01138927  00000-0 -44786-1 0  9996,2 53998  53.2175 171.9830 0001381 100.8172  99.1003 15.28271272  9356,6859.1169999999975,94.224,481.929,480.035,0.0
53998.0,STARLINK-5128,PAYLOAD,2022-12-02 14:00:01,15.27358627,0.0001648,53.2171,170.4426,116.1319,118.279,-0.040178,-0.0100478,0.0,0 STARLINK-5128,1 53998U 22125AL  22336.58334491 -.01004780  00000-0 -40178-1 0  9992,2 53998  53.2171 170.4426 0001648 116.1319 118.2790 15.27358627  1308,6861.849,94.28,484.845,482.583,0.0
53998.0,STARLINK-5128,PAYLOAD,2022-12-02 20:00:01,15.26739719,0.0001494,53.2173,169.2896,113.9043,55.7105,-0.041014,-0.01006316,0.0,0 STARLINK-5128,1 53998U 22125AL  22336.83334491 -.01006316  00000-0 -41014-1 0  9997,2 53998  53.2173 169.2896 0001494 113.9043  55.7105 15.26739719  1304,6863.703,94.319,486.594,484.543,0.0
53998.0,STARLINK-5128,PAYLOAD,2022-12-03 06:00:00,15.25827761,0.000128,53.2171,167.3676,115.3411,184.9759,-0.04809,-0.01150354,0.0,0 STARLINK-5128,1 53998U 22125AL  22337.25001157 -.01150354  00000-0 -48090-1 0  9997,2 53998  53.2171 167.3676 0001280 115.3411 184.9759 15.25827761  9509,6866.438,94.375,489.182,487.424,0.0
53998.0,STARLINK-5128,PAYLOAD,2022-12-03 14:00:01,15.24943858,0.000116,53.2169,165.8318,109.3367,222.5254,-0.0448,-0.010381,0.0,0 STARLINK-5128,1 53998U 22125AL  22337.58334491 -.01038100  00000-0 -44800-1 0  9992,2 53998  53.2169 165.8318 0001160 109.3367 222.5254 15.24943858  1306,6869.090999999999,94.43,491.753,490.159,0.0
53998.0,STARLINK-5128,PAYLOAD,2022-12-03 22:00:00,15.241237699999996,0.0001156,53.2172,164.3006,96.705,265.6926,-0.045563,-0.01030682,0.0,0 STARLINK-5128,1 53998U 22125AL  22337.91667824 -.01030682  00000-0 -45563-1 0  9992,2 53998  53.2172 164.3006 0001156  96.7050 265.6926 15.24123770  1308,6871.555,94.481,494.214,492.625,0.0
53998.0,STARLINK-5128,PAYLOAD,2022-12-04 06:00:00,15.23319006,0.0001081,53.2171,162.7678,81.3877,310.56,-0.047167,-0.01040664,0.0,0 STARLINK-5128,1 53998U 22125AL  22338.25001157 -.01040664  00000-0 -47167-1 0  9994,2 53998  53.2171 162.7678 0001081  81.3877 310.5600 15.23319006  9662,6873.975,94.53,496.583,495.097,0.0
53998.0,STARLINK-5128,PAYLOAD,2022-12-04 12:00:00,15.22446181,0.0001246,53.2168,161.6194,84.708,238.9308,-0.033012,-0.00721246,0.0,0 STARLINK-5128,1 53998U 22125AL  22338.50001157 -.00721246  00000-0 -33012-1 0  9997,2 53998  53.2168 161.6194 0001246  84.7080 238.9308 15.22446181  9690,6876.602,94.585,499.324,497.61,0.0
53998.0,STARLINK-5128,PAYLOAD,2022-12-04 14:00:01,15.22383252,0.0001325,53.2167,161.2381,74.6694,345.9177,-0.040191,-0.00874553,0.0,0 STARLINK-5128,1 53998U 22125AL  22338.58334491 -.00874553  00000-0 -40191-1 0  9991,2 53998  53.2167 161.2381 0001325  74.6694 345.9177 15.22383252  1302,6876.791,94.589,499.567,497.745,0.0
53998.0,STARLINK-5128,PAYLOAD,2022-12-04 22:00:00,15.21654186,0.0001372,53.2171,159.7128,75.8751,12.2678,-0.047005,-0.00991191,0.0,0 STARLINK-5128,1 53998U 22125AL  22338.91667824 -.00991191  00000-0 -47005-1 0  9996,2 53998  53.2171 159.7128 0001372  75.8751  12.2678 15.21654186  1303,6878.988,94.634,501.796,499.909,0.0
53998.0,STARLINK-5128,PAYLOAD,2022-12-05 06:00:00,15.20958783,0.0001345,53.2171,158.1859,73.6702,41.0365,-0.05649,-0.0116692,0.0,0 STARLINK-5128,1 53998U 22125AL  22339.25001157 -.01166920  00000-0 -56490-1 0  9998,2 53998  53.2171 158.1859 0001345  73.6702  41.0365 15.20958783  9815,6881.084,94.677,503.875,502.024,0.0
53998.0,STARLINK-5128,PAYLOAD,2022-12-05 14:00:01,15.20158057,0.0001413,53.2168,156.6616,84.3504,56.0576,-0.058822,-0.01185271,0.0,0 STARLINK-5128,1 53998U 22125AL  22339.58335648 -.01185271  00000-0 -58822-1 0  9990,2 53998  53.2168 156.6616 0001413  84.3504  56.0576 15.20158057  1302,6883.5,94.727,506.338,504.393,0.0
53998.0,STARLINK-5128,PAYLOAD,2022-12-05 22:00:01,15.19314186,0.0001395999999999,53.2175,155.1411,79.8967,85.1914,-0.058001,-0.0114365,0.0,0 STARLINK-5128,1 53998U 22125AL  22339.91668981 -.01143650  00000-0 -58001-1 0  9990,2 53998  53.2175 155.1411 0001396  79.8967  85.1914 15.19314186  1303,6886.049,94.78,508.875,506.953,0.0
53998.0,STARLINK-5128,PAYLOAD,2022-12-06 06:00:00,15.1849992,0.0001431999999999,53.217,153.6207,72.166,116.5478,-0.059381,-0.01143453,0.0,0 STARLINK-5128,1 53998U 22125AL  22340.25001157 -.01143453  00000-0 -59381-1 0  9998,2 53998  53.2170 153.6207 0001432  72.1660 116.5478 15.18499920  9964,6888.511,94.83,511.362,509.389,0.0
53998.0,STARLINK-5128,PAYLOAD,2022-12-06 14:00:01,15.17682769,0.0001426,53.2167,152.1025,81.0656,130.4231,-0.0605159999999999,-0.01138448,0.0,0 STARLINK-5128,1 53998U 22125AL  22340.58335648 -.01138448  00000-0 -60516-1 0  9999,2 53998  53.2167 152.1025 0001426  81.0656 130.4231 15.17682769  1305,6890.983,94.881,513.831,511.865,0.0
53998.0,STARLINK-5128,PAYLOAD,2022-12-06 22:00:00,15.16874376,0.0001399,53.2169,150.5885,78.6518,154.5016,-0.062301,-0.01144505,0.0,0 STARLINK-5128,1 53998U 22125AL  22340.91667824 -.01144505  00000-0 -62301-1 0  9995,2 53998  53.2169 150.5885 0001399  78.6518 154.5016 15.16874376  1305,6893.431,94.932,516.26,514.332,0.0
53998.0,STARLINK-5128,PAYLOAD,2022-12-07 14:00:01,15.149537,0.0001371,53.2166,147.5591,81.0523,192.7835,-0.041251,-0.00724666,0.0,0 STARLINK-5128,1 53998U 22125AL  22341.58334491 -.00724666  00000-0 -41251-1 0  9992,2 53998  53.2166 147.5591 0001371  81.0523 192.7835 15.14953700 10160,6899.255999999999,95.052,522.067,520.175,0.0
53998.0,STARLINK-5128,PAYLOAD,2022-12-07 22:00:00,15.14049728,0.0001428,53.2162,146.05,75.734,216.9519,-0.035139,-0.00602614,0.0,0 STARLINK-5128,1 53998U 22125AL  22341.91667824 -.00602614  00000-0 -35139-1 0  9994,2 53998  53.2162 146.0500 0001428  75.7340 216.9519 15.14049728 10210,6902.002,95.109,524.8530000000002,522.881,0.0
53998.0,STARLINK-5128,PAYLOAD,2022-12-08 00:00:00,15.14157607,0.0001175,53.2164,145.6734,62.9458,324.1161,-0.060591,-0.01037958,0.0,0 STARLINK-5128,1 53998U 22125AL  22342.00001157 -.01037958  00000-0 -60591-1 0  9990,2 53998  53.2164 145.6734 0001175  62.9458 324.1161 15.14157607  1304,6901.674,95.102,524.35,522.7280000000002,0.0
53998.0,STARLINK-5128,PAYLOAD,2022-12-08 06:00:00,15.13619226,0.0001228,53.2175,144.5407,79.2751,231.031,-0.068394,-0.01144962,0.0,0 STARLINK-5128,1 53998U 22125AL  22342.25001157 -.01144962  00000-0 -68394-1 0  9990,2 53998  53.2175 144.5407 0001228  79.2751 231.0310 15.13619226 10263,6903.311,95.136,526.023,524.328,0.0
53998.0,STARLINK-5128,PAYLOAD,2022-12-08 14:00:01,15.12258307,0.00013,53.2169,143.034,64.5295,262.9121,-0.023015,-0.00382138,0.0,0 STARLINK-5128,1 53998U 22125AL  22342.58334491 -.00382138  00000-0 -23015-1 0  9995,2 53998  53.2169 143.0340 0001300  64.5295 262.9121 15.12258307  1303,6907.4519999999975,95.222,530.215,528.419,0.0
53998.0,STARLINK-5128,PAYLOAD,2022-12-08 18:55:15,15.14324862,0.0001771999999999,53.2173,142.1275,347.2404,12.8546,-0.018119,-0.00321593,0.0,0 STARLINK-5128,1 53998U 22125AL  22342.78836981 -.00321593  00000-0 -18119-1 0  9995,2 53998  53.2173 142.1275 0001772 347.2404  12.8546 15.14324862 10351,6901.166,95.092,524.254,521.808,0.0
53998.0,STARLINK-5128,PAYLOAD,2022-12-09 06:00:02,15.11057974,0.0001286,53.217,140.0275,47.57899999999999,310.4401,-0.061582,-0.00960473,0.0,0 STARLINK-5128,1 53998U 22125AL  22343.25002315 -.00960473  00000-0 -61582-1 0  9992,2 53998  53.2170 140.0275 0001286  47.5790 310.4401 15.11057974 10422,6911.109,95.297,533.863,532.085,0.0
